#aV2020 11  6  0  0  0.00000000     288 DD+AD WGS84 FIT  NGA
## 2130 432000.00000000   300.00000000 59159 0.0000000000000
+   31     1  2  3  4  5  6  7  8  9 10 11 12 13 15 16 17 18
+         19 20 21 22 23 24 25 26 27 28 29 30 31 32  0  0  0
+          0  0  0  0  0  0  0  0  0  0  0  0  0  0  0  0  0
+          0  0  0  0  0  0  0  0  0  0  0  0  0  0  0  0  0
+          0  0  0  0  0  0  0  0  0  0  0  0  0  0  0  0  0
++         2  2  2  2  2  2  2  2  2  2  2  2  2  2  2  2  2
++         2  2  2  2  2  2  2  2  2  2  2  2  2  2  0  0  0
++         0  0  0  0  0  0  0  0  0  0  0  0  0  0  0  0  0
++         0  0  0  0  0  0  0  0  0  0  0  0  0  0  0  0  0
++         0  0  0  0  0  0  0  0  0  0  0  0  0  0  0  0  0
%c cc cc ccc ccc cccc cccc cccc cccc ccccc ccccc ccccc ccccc
%c cc cc ccc ccc cccc cccc cccc cccc ccccc ccccc ccccc ccccc
%f  0.0000000  0.000000000  0.00000000000  0.000000000000000
%f  0.0000000  0.000000000  0.00000000000  0.000000000000000
%i    0    0    0    0      0      0      0      0         0
%i    0    0    0    0      0      0      0      0         0
/*      NGA, ST. LOUIS,MO.                                  
/*   EPHEMERIS COMPUTED FROM 2 DAYS OF DATA                 
/*   EPOCHA v5 SMOOTHER                                     
/*   G1762 IERS2010 SATAF SATAPC                            
*  2020 11  6  7 55  0.00000000
P  1  16523.726709   4525.388626  20152.064231    810.118188                    
V  1   9454.252904  24195.040130 -12713.493346     -0.033806                    
P  2 -14659.865547 -21590.086709  -4321.939039   -539.040211                    
V  2   -404.826505  -6890.079510  31123.364140     -0.047759                    
P  3  19499.134551  -7425.536465  16294.349118   -346.108772                    
V  3 -10959.096295  17854.729061  21239.204315     -0.101200                    
P  4  26109.107201    349.270787  -4979.281857   -152.638947                    
V  4   5850.915218   3635.807786  30868.735522     -0.037012                    
P  5  -9856.269044 -12462.718265 -21416.205693    -25.197081                    
V  5  15761.834907 -21784.004132   5644.378952     -0.009310                    
P  6  -4454.976426 -24726.376518   8612.097443      0.233726                    
V  6   6145.193844   9153.681525  29690.639571     -0.018183                    
P  7  10175.800236 -13058.767770 -20335.898519   -408.651265                    
V  7  11544.485872  24118.741975 -10037.299883     -0.077492                    
P  8  25574.752323   5913.617068  -4913.490941    -54.095393                    
V  8  -6395.492999   1658.469530 -30943.165576     -0.013854                    
P  9  19987.777784  -8859.780930 -15154.949714   -285.960425                    
V  9  18843.483820   4034.885416  22568.609002     -0.049328                    
P 10 -10111.925304  23082.658041   8048.092550   -497.888863                    
V 10  -8149.392733   6616.663116 -29802.332852     -0.092459                    
P 11  22687.020981   9038.548235   9533.290921   -116.415016                    
V 11   7380.209544  11460.150556 -27484.685010      0.105425                    
P 12 -19118.498030   3893.595305  17714.694427     44.129458                    
V 12  13804.114079 -18442.367779  18849.835841     -0.051467                    
P 13 -19874.038760 -13309.572624 -11802.411086     62.084380                    
V 13  14792.240406   1541.855735 -26838.638927      0.038269                    
P 15 -26216.254420  -3451.486990  -4460.442941   -191.912406                    
V 15   5222.059193  -3379.057444 -30104.632964      0.025873                    
P 16   9091.038868  12143.920277 -21983.882001   -232.584329                    
V 16 -18551.454976  20150.398960   3937.973717     -0.052799                    
P 17   2059.571618 -14783.709082  22400.716151    350.120545                    
V 17  26927.669829   4691.993166    602.510767      0.052626                    
P 18  -8993.338218  14809.174903 -20125.123531    317.673056                    
V 18 -10599.664288 -23253.765396 -12431.982440      0.051213                    
P 19  -5272.871090 -15370.762130  20740.377945    -82.002954                    
V 19  26429.362384   5146.852051  10318.622507      0.050287                    
P 20 -15413.656280  20938.397616  -4774.284196    526.133118                    
V 20   -393.077441  -7092.377346 -30557.165666     -0.001512                    
P 21  18438.056282  14202.419936  13876.564936     65.402323                    
V 21   5838.165845  15290.683866 -24411.863883      0.038707                    
P 22  17272.728864    625.665797  20326.577678   -733.794196                    
V 22 -12203.673937  22450.159704   9927.996736      0.051357                    
P 23 -16432.345553  20738.266850  -2177.168451     96.710775                    
V 23   -719.842267  -3841.594670 -31634.244685      0.050470                    
P 24 -18398.068697  -7448.485338  17605.951892      6.810129                    
V 24  -8725.422990 -21071.703125 -17425.520298     -0.004893                    
P 25 -19248.657158  15669.629360   8833.481513     17.415011                    
V 25   4700.114138 -10992.106712  29217.196027      0.063963                    
P 26   -168.666071  20985.741840 -16167.880987    307.286143                    
V 26 -13560.784305  15697.473653  20803.780638      0.061105                    
P 27  18340.608355  12356.410526 -15106.893238     -7.445137                    
V 27 -18791.054809   -729.249573 -23303.944616     -0.084331                    
P 28  10682.921488 -22380.584950  10315.931760    658.907383                    
V 28   9490.635458  -7847.979227 -28304.720997     -0.046477                    
P 29 -22064.085865   5245.493058 -13900.879842   -230.784186                    
V 29 -16940.021106  -4753.130195  25113.378265     -0.077626                    
P 30   3525.580462 -21324.755451 -15239.289394   -330.677879                    
V 30   9706.974020  17222.255449 -21998.015410     -0.066931                    
P 31   5432.066716  24994.026148   6124.924778    -79.668901                    
V 31  -5958.471188  -6181.595675  30669.996641     -0.024158                    
P 32  -1594.702278  15258.618739  21766.303577    364.870905                    
V 32 -27284.293782  -3004.505590    -47.844278      0.034832                    
EOF
